{"type": "FeatureCollection", "features": [ {"type": "Feature", "properties": {"norad_id": 60989, "name": "SENTINEL-2C", "group": "resource", "lat": 51.61413948577872, "lon": -96.20828723753168, "alt_km": 783.2872182384754, "timestamp": "2025-12-26T12:57:38.924975+00:00", "meta": {"OBJECT_NAME": "SENTINEL-2C", "OBJECT_ID": "2024-157A", "EPOCH": "2025-12-26T03:58:31.725408", "MEAN_MOTION": 14.30818046, "ECCENTRICITY": 0.00013866, "INCLINATION": 98.5666, "RA_OF_ASC_NODE": 72.4538, "ARG_OF_PERICENTER": 102.8528, "MEAN_ANOMALY": 257.2809, "EPHEMERIS_TYPE": 0, "CLASSIFICATION_TYPE": "U", "NORAD_CAT_ID": 60989, "ELEMENT_SET_NO": 999, "REV_AT_EPOCH": 6824, "BSTAR": 0.0001005445, "MEAN_MOTION_DOT": 2.2e-06, "MEAN_MOTION_DDOT": 0}, "tle": {"line1": "1 60989U 24157A   25360.16564497  .00000220  00000+0  10054-3 0  9995", "line2": "2 60989  98.5666  72.4538 0001386 102.8528 257.2809 14.30818046 68245"}}, "geometry": {"type": "Point", "coordinates": [-96.20828723753168, 51.61413948577872]}}, {"type": "Feature", "properties": {"norad_id": 61735, "name": "IONOSFERA-M 1", "group": "resource", "lat": -7.989389883915627, "lon": -128.48137236821572, "alt_km": 819.8721116414581, "timestamp": "2025-12-26T12:57:38.924988+00:00", "meta": {"OBJECT_NAME": "IONOSFERA-M 1", "OBJECT_ID": "2024-199A", "EPOCH": "2025-12-26T06:14:50.090208", "MEAN_MOTION": 14.2271696, "ECCENTRICITY": 2.906e-05, "INCLINATION": 98.7395, "RA_OF_ASC_NODE": 230.0041, "ARG_OF_PERICENTER": 4.0801, "MEAN_ANOMALY": 356.038, "EPHEMERIS_TYPE": 0, "CLASSIFICATION_TYPE": "U", "NORAD_CAT_ID": 61735, "ELEMENT_SET_NO": 999, "REV_AT_EPOCH": 10311, "BSTAR": 4.31104e-05, "MEAN_MOTION_DOT": 5.2e-07, "MEAN_MOTION_DDOT": 0}, "tle": {"line1": "1 61735U 24199A   25360.26030197  .00000052  00000+0  43110-4 0  9990", "line2": "2 61735  98.7395 230.0041 0000290   4.0801 356.0380 14.22716960103118"}}, "geometry": {"type": "Point", "coordinates": [-128.48137236821572, -7.989389883915627]}}, {"type": "Feature", "properties": {"norad_id": 61736, "name": "IONOSFERA-M 2", "group": "resource", "lat": 4.997422723057608, "lon": 50.964688824549064, "alt_km": 818.2380200171765, "timestamp": "2025-12-26T12:57:38.924998+00:00", "meta": {"OBJECT_NAME": "IONOSFERA-M 2", "OBJECT_ID": "2024-199B", "EPOCH": "2025-12-26T07:04:41.865600", "MEAN_MOTION": 14.22719163, "ECCENTRICITY": 0.00018718, "INCLINATION": 98.7394, "RA_OF_ASC_NODE": 229.9509, "ARG_OF_PERICENTER": 93.0182, "MEAN_ANOMALY": 267.1211, "EPHEMERIS_TYPE": 0, "CLASSIFICATION_TYPE": "U", "NORAD_CAT_ID": 61736, "ELEMENT_SET_NO": 999, "REV_AT_EPOCH": 10624, "BSTAR": 4.8915171e-05, "MEAN_MOTION_DOT": 6.5e-07, "MEAN_MOTION_DDOT": 0}, "tle": {"line1": "1 61736U 24199B   25360.29492900  .00000065  00000+0  48915-4 0  9990", "line2": "2 61736  98.7394 229.9509 0001871  93.0182 267.1211 14.22719163106240"}}, "geometry": {"type": "Point", "coordinates": [50.964688824549064, 4.997422723057608]}}, {"type": "Feature", "properties": {"norad_id": 63772, "name": "BIOMASS", "group": "resource", "lat": 68.37407082252527, "lon": 164.3796217145181, "alt_km": 661.552775206741, "timestamp": "2025-12-26T12:57:38.925008+00:00", "meta": {"OBJECT_NAME": "BIOMASS", "OBJECT_ID": "2025-090A", "EPOCH": "2025-12-26T06:05:53.376864", "MEAN_MOTION": 14.67541296, "ECCENTRICITY": 0.0001056, "INCLINATION": 98.0696, "RA_OF_ASC_NODE": 185.0668, "ARG_OF_PERICENTER": 85.1295, "MEAN_ANOMALY": 275.003, "EPHEMERIS_TYPE": 0, "CLASSIFICATION_TYPE": "U", "NORAD_CAT_ID": 63772, "ELEMENT_SET_NO": 999, "REV_AT_EPOCH": 3532, "BSTAR": 0.00024829463, "MEAN_MOTION_DOT": 1.36e-05, "MEAN_MOTION_DDOT": 0}, "tle": {"line1": "1 63772U 25090A   25360.25409001  .00001360  00000+0  24829-3 0  9995", "line2": "2 63772  98.0696 185.0668 0001056  85.1295 275.0030 14.67541296 35326"}}, "geometry": {"type": "Point", "coordinates": [164.3796217145181, 68.37407082252527]}}, {"type": "Feature", "properties": {"norad_id": 64694, "name": "GOSAT-GW (IBUKI GW)", "group": "resource", "lat": -76.68395546609564, "lon": -27.50570587345712, "alt_km": 677.1380386835308, "timestamp": "2025-12-26T12:57:38.925019+00:00", "meta": {"OBJECT_NAME": "GOSAT-GW (IBUKI GW)", "OBJECT_ID": "2025-141A", "EPOCH": "2025-12-26T06:46:35.840928", "MEAN_MOTION": 14.67562258, "ECCENTRICITY": 0.00014269, "INCLINATION": 98.044, "RA_OF_ASC_NODE": 295.5507, "ARG_OF_PERICENTER": 82.3167, "MEAN_ANOMALY": 277.82, "EPHEMERIS_TYPE": 0, "CLASSIFICATION_TYPE": "U", "NORAD_CAT_ID": 64694, "ELEMENT_SET_NO": 999, "REV_AT_EPOCH": 2648, "BSTAR": 0.00019927816, "MEAN_MOTION_DOT": 1.083e-05, "MEAN_MOTION_DDOT": 0}, "tle": {"line1": "1 64694U 25141A   25360.28235927  .00001083  00000+0  19928-3 0  9999", "line2": "2 64694  98.0440 295.5507 0001426  82.3167 277.8200 14.67562258 26481"}}, "geometry": {"type": "Point", "coordinates": [-27.50570587345712, -76.68395546609564]}}, {"type": "Feature", "properties": {"norad_id": 64876, "name": "IONOSFERA-M 3", "group": "resource", "lat": 23.977984632402297, "lon": 145.86705175038475, "alt_km": 820.4600857977157, "timestamp": "2025-12-26T12:57:38.925029+00:00", "meta": {"OBJECT_NAME": "IONOSFERA-M 3", "OBJECT_ID": "2025-155A", "EPOCH": "2025-12-26T07:09:46.946592", "MEAN_MOTION": 14.21444307, "ECCENTRICITY": 0.00018002, "INCLINATION": 98.5801, "RA_OF_ASC_NODE": 321.782, "ARG_OF_PERICENTER": 38.1512, "MEAN_ANOMALY": 321.9793, "EPHEMERIS_TYPE": 0, "CLASSIFICATION_TYPE": "U", "NORAD_CAT_ID": 64876, "ELEMENT_SET_NO": 999, "REV_AT_EPOCH": 2184, "BSTAR": 6.3014499e-05, "MEAN_MOTION_DOT": 9.5e-07, "MEAN_MOTION_DDOT": 0}, "tle": {"line1": "1 64876U 25155A   25360.29846003  .00000095  00000+0  63014-4 0  9998", "line2": "2 64876  98.5801 321.7820 0001800  38.1512 321.9793 14.21444307 21845"}}, "geometry": {"type": "Point", "coordinates": [145.86705175038475, 23.977984632402297]}}, {"type": "Feature", "properties": {"norad_id": 64877, "name": "IONOSFERA-M 4", "group": "resource", "lat": -23.51795773665132, "lon": -34.29664336002285, "alt_km": 825.6397428771725, "timestamp": "2025-12-26T12:57:38.925039+00:00", "meta": {"OBJECT_NAME": "IONOSFERA-M 4", "OBJECT_ID": "2025-155B", "EPOCH": "2025-12-26T06:18:54.005184", "MEAN_MOTION": 14.21445437, "ECCENTRICITY": 0.0001247, "INCLINATION": 98.5802, "RA_OF_ASC_NODE": 321.667, "ARG_OF_PERICENTER": 51.0355, "MEAN_ANOMALY": 309.0934, "EPHEMERIS_TYPE": 0, "CLASSIFICATION_TYPE": "U", "NORAD_CAT_ID": 64877, "ELEMENT_SET_NO": 999, "REV_AT_EPOCH": 2183, "BSTAR": 6.3255768e-05, "MEAN_MOTION_DOT": 9.6e-07, "MEAN_MOTION_DDOT": 0}, "tle": {"line1": "1 64877U 25155B   25360.26312506  .00000096  00000+0  63256-4 0  9991", "line2": "2 64877  98.5802 321.6670 0001247  51.0355 309.0934 14.21445437 21831"}}, "geometry": {"type": "Point", "coordinates": [-34.29664336002285, -23.51795773665132]}}, {"type": "Feature", "properties": {"norad_id": 64899, "name": "MICROCARB", "group": "resource", "lat": 57.121726363267115, "lon": -91.76901129890574, "alt_km": 637.1750815858213, "timestamp": "2025-12-26T12:57:38.925049+00:00", "meta": {"OBJECT_NAME": "MICROCARB", "OBJECT_ID": "2025-156A", "EPOCH": "2025-12-26T05:53:04.779744", "MEAN_MOTION": 14.72078556, "ECCENTRICITY": 0.0017664, "INCLINATION": 98.0009, "RA_OF_ASC_NODE": 75.3732, "ARG_OF_PERICENTER": 104.3556, "MEAN_ANOMALY": 255.9614, "EPHEMERIS_TYPE": 0, "CLASSIFICATION_TYPE": "U", "NORAD_CAT_ID": 64899, "ELEMENT_SET_NO": 999, "REV_AT_EPOCH": 2252, "BSTAR": 0.00012908325, "MEAN_MOTION_DOT": 7.64e-06, "MEAN_MOTION_DDOT": 0}, "tle": {"line1": "1 64899U 25156A   25360.24519421  .00000764  00000+0  12908-3 0  9998", "line2": "2 64899  98.0009  75.3732 0017664 104.3556 255.9614 14.72078556 22527"}}, "geometry": {"type": "Point", "coordinates": [-91.76901129890574, 57.121726363267115]}}, {"type": "Feature", "properties": {"norad_id": 64900, "name": "CO3D 3", "group": "resource", "lat": 30.177149256619657, "lon": 72.35479449961407, "alt_km": 503.0385973313978, "timestamp": "2025-12-26T12:57:38.925059+00:00", "meta": {"OBJECT_NAME": "CO3D 3", "OBJECT_ID": "2025-156B", "EPOCH": "2025-12-26T06:30:29.771424", "MEAN_MOTION": 15.20198691, "ECCENTRICITY": 0.00012956, "INCLINATION": 97.4344, "RA_OF_ASC_NODE": 76.4444, "ARG_OF_PERICENTER": 67.2475, "MEAN_ANOMALY": 292.8897, "EPHEMERIS_TYPE": 0, "CLASSIFICATION_TYPE": "U", "NORAD_CAT_ID": 64900, "ELEMENT_SET_NO": 999, "REV_AT_EPOCH": 2326, "BSTAR": 1.9582185e-05, "MEAN_MOTION_DOT": 3.56e-06, "MEAN_MOTION_DDOT": 0}, "tle": {"line1": "1 64900U 25156B   25360.27117791  .00000356  00000+0  19582-4 0  9991", "line2": "2 64900  97.4344  76.4444 0001295  67.2475 292.8897 15.20198691 23269"}}, "geometry": {"type": "Point", "coordinates": [72.35479449961407, 30.177149256619657]}}, {"type": "Feature", "properties": {"norad_id": 64901, "name": "CO3D 4", "group": "resource", "lat": 29.317276630820956, "lon": 72.50438898626471, "alt_km": 504.3665008188382, "timestamp": "2025-12-26T12:57:38.925069+00:00", "meta": {"OBJECT_NAME": "CO3D 4", "OBJECT_ID": "2025-156C", "EPOCH": "2025-12-26T06:30:43.267104", "MEAN_MOTION": 15.20193764, "ECCENTRICITY": 0.00013815, "INCLINATION": 97.4337, "RA_OF_ASC_NODE": 76.4444, "ARG_OF_PERICENTER": 149.4206, "MEAN_ANOMALY": 210.711, "EPHEMERIS_TYPE": 0, "CLASSIFICATION_TYPE": "U", "NORAD_CAT_ID": 64901, "ELEMENT_SET_NO": 999, "REV_AT_EPOCH": 2326, "BSTAR": 0.0002417136, "MEAN_MOTION_DOT": 5.167e-05, "MEAN_MOTION_DDOT": 0}, "tle": {"line1": "1 64901U 25156C   25360.27133411  .00005167  00000+0  24171-3 0  9993", "line2": "2 64901  97.4337  76.4444 0001381 149.4206 210.7110 15.20193764 23266"}}, "geometry": {"type": "Point", "coordinates": [72.50438898626471, 29.317276630820956]}}]}